IRIDIUM 112             
1 41925U 17003J   25029.47460807 -.00000201  00000+0 -78921-4 0  9991
2 41925  86.3969 298.7903 0001834  81.2438 278.8966 14.34217372421102
IRIDIUM 111             
1 41926U 17003K   25029.46192003  .00000678  00000+0  23511-3 0  9991
2 41926  86.3976 298.8558 0002175  86.5689 273.5756 14.34218150421051
IRIDIUM 113             
1 42803U 17039A   25029.44188806  .00000017  00000+0 -83051-6 0  9995
2 42803  86.4027 172.6920 0001406  98.4533 261.6822 14.34217481398985
IRIDIUM 123             
1 42804U 17039B   25029.48336383  .00000106  00000+0  30708-4 0  9992
2 42804  86.3985 204.1002 0002143  97.7098 262.4341 14.34217308397754
IRIDIUM 120             
1 42805U 17039C   25029.43554698  .00000018  00000+0 -75670-6 0  9991
2 42805  86.4016 172.5424 0002340  95.1654 264.9808 14.34217550398975
IRIDIUM 115             
1 42806U 17039D   25029.43003390  .00001024  00000+0  29837-3 0  9998
2 42806  86.4551 172.6030 0002285 108.8529 251.2919 14.43280066401604
IRIDIUM 118             
1 42807U 17039E   25029.51507755  .00000001  00000+0 -65396-5 0  9999
2 42807  86.3987 204.0877 0001859  92.3791 267.7618 14.34216836397752
IRIDIUM 117             
1 42808U 17039F   25029.53410587 -.00000073  00000+0 -33031-4 0  9998
2 42808  86.3988 204.0423 0002053 100.4135 259.7292 14.34216904397789
